[{"OBJECT_NAME":"CSTP 1.2 (STC 1.2)","OBJECT_ID":"2023-091W","EPOCH":"2026-03-09T23:12:27.821952","MEAN_MOTION":15.2718076,"ECCENTRICITY":0.00204388,"INCLINATION":97.5258,"RA_OF_ASC_NODE":134.3262,"ARG_OF_PERICENTER":84.9592,"MEAN_ANOMALY":275.3979,"EPHEMERIS_TYPE":0,"CLASSIFICATION_TYPE":"U","NORAD_CAT_ID":57186,"ELEMENT_SET_NO":999,"REV_AT_EPOCH":14930,"BSTAR":0.00043035718,"MEAN_MOTION_DOT":0.00011466,"MEAN_MOTION_DDOT":0},{"OBJECT_NAME":"STARLINK-32556","OBJECT_ID":"2024-202P","EPOCH":"2026-03-09T11:05:13.809696","MEAN_MOTION":15.27573886,"ECCENTRICITY":0.000132,"INCLINATION":43.0009,"RA_OF_ASC_NODE":239.2027,"ARG_OF_PERICENTER":255.5118,"MEAN_ANOMALY":104.5587,"EPHEMERIS_TYPE":0,"CLASSIFICATION_TYPE":"U","NORAD_CAT_ID":61858,"ELEMENT_SET_NO":999,"REV_AT_EPOCH":7530,"BSTAR":-1.6253294e-5,"MEAN_MOTION_DOT":-7.09e-6,"MEAN_MOTION_DDOT":0}]
